GLOBALSTAR M084 [+]     
1 38040U 11080A   23238.36920299 -.00000070  00000+0  19015-3 0  9999
2 38040  51.9988 260.2485 0000430  73.4594  29.0138 12.62265129539212
GLOBALSTAR M080 [+]     
1 38041U 11080B   23238.51250793 -.00000067  00000+0  20736-3 0  9990
2 38041  52.0039 261.1858 0000420  45.8466 108.7148 12.62263905539357
GLOBALSTAR M082 [+]     
1 38042U 11080C   23238.44343098 -.00000091  00000+0  73428-4 0  9998
2 38042  52.0052 216.7706 0000566 162.6150 337.6753 12.62270227540059
GLOBALSTAR M092 [+]     
1 38043U 11080D   23238.57558628 -.00000080  00000+0  13518-3 0  9991
2 38043  52.0090 306.7123 0000773  91.2868  49.9913 12.62271803538529
GLOBALSTAR M090 [+]     
1 38044U 11080E   23238.39489705 -.00000087  00000+0  91929-4 0  9991
2 38044  51.9863 211.5786 0000107 129.6584  30.0218 12.62267163540162
GLOBALSTAR M086 [+]     
1 38045U 11080F   23238.34313580 -.00000085  00000+0  10573-3 0  9997
2 38045  51.9875 212.2348 0000926 309.2290 215.8692 12.62269727540108
GLOBALSTAR M097 [+]     
1 39072U 13005A   23238.41277142 -.00000112  00000+0 -45165-4 0  9996
2 39072  52.0040 125.9009 0000293  67.8296 292.2602 12.62270228487365
GLOBALSTAR M093 [+]     
1 39073U 13005B   23238.62368120 -.00000100  00000+0  19442-4 0  9992
2 39073  51.9803 119.6182 0000142  32.8495 327.2380 12.62266219487344
